{
  "links" : {
    "next" : "https://api.nasa.gov/neo/rest/v1/feed?start_date=2015-08-09&end_date=2015-08-09&detailed=true&api_key=t0TVs3DtDT2H8Oy2Zy8m2eVrNsAVKAexjcZXUckd",
    "prev" : "https://api.nasa.gov/neo/rest/v1/feed?start_date=2015-08-07&end_date=2015-08-07&detailed=true&api_key=t0TVs3DtDT2H8Oy2Zy8m2eVrNsAVKAexjcZXUckd",
    "self" : "https://api.nasa.gov/neo/rest/v1/feed?start_date=2015-08-08&end_date=2015-08-08&detailed=true&api_key=t0TVs3DtDT2H8Oy2Zy8m2eVrNsAVKAexjcZXUckd"
  },
  "element_count" : 8,
  "near_earth_objects" : {
    "2015-08-08" : [ {
      "links" : {
        "self" : "https://api.nasa.gov/neo/rest/v1/neo/2337084?api_key=t0TVs3DtDT2H8Oy2Zy8m2eVrNsAVKAexjcZXUckd"
      },
      "neo_reference_id" : "2337084",
      "name" : "337084 (1998 SE36)",
      "nasa_jpl_url" : "http://ssd.jpl.nasa.gov/sbdb.cgi?sstr=2337084",
      "absolute_magnitude_h" : 19.6,
      "estimated_diameter" : {
        "kilometers" : {
          "estimated_diameter_min" : 0.3195618867,
          "estimated_diameter_max" : 0.7145621017
        },
        "meters" : {
          "estimated_diameter_min" : 319.5618867213,
          "estimated_diameter_max" : 714.5621017269
        },
        "miles" : {
          "estimated_diameter_min" : 0.1985664891,
          "estimated_diameter_max" : 0.4440081677
        },
        "feet" : {
          "estimated_diameter_min" : 1048.4314204307,
          "estimated_diameter_max" : 2344.3639258298
        }
      },
      "is_potentially_hazardous_asteroid" : false,
      "close_approach_data" : [ {
        "close_approach_date" : "2015-08-08",
        "epoch_date_close_approach" : 1439017200000,
        "relative_velocity" : {
          "kilometers_per_second" : "4.6616619225",
          "kilometers_per_hour" : "16781.9829211653",
          "miles_per_hour" : "10427.671554543"
        },
        "miss_distance" : {
          "astronomical" : "0.3810927931",
          "lunar" : "148.2450866699",
          "kilometers" : "57010668",
          "miles" : "35424788"
        },
        "orbiting_body" : "Earth"
      } ],
      "orbital_data" : {
        "orbit_id" : "62",
        "orbit_determination_date" : "2017-04-06 09:23:23",
        "orbit_uncertainty" : "0",
        "minimum_orbit_intersection" : ".213643",
        "jupiter_tisserand_invariant" : "4.869",
        "epoch_osculation" : "2458000.5",
        "eccentricity" : ".09902927836596817",
        "semi_major_axis" : "1.34137115343917",
        "inclination" : "11.67657077669496",
        "ascending_node_longitude" : "199.2524046391604",
        "orbital_period" : "567.4425135380593",
        "perihelion_distance" : "1.208536136093162",
        "perihelion_argument" : "27.14641655018888",
        "aphelion_distance" : "1.474206170785177",
        "perihelion_time" : "2458252.725914237785",
        "mean_anomaly" : "199.9814484123729",
        "mean_motion" : ".6344254993432991",
        "equinox" : "J2000"
      }
    }, {
      "links" : {
        "self" : "https://api.nasa.gov/neo/rest/v1/neo/2434154?api_key=t0TVs3DtDT2H8Oy2Zy8m2eVrNsAVKAexjcZXUckd"
      },
      "neo_reference_id" : "2434154",
      "name" : "434154 (2002 SL)",
      "nasa_jpl_url" : "http://ssd.jpl.nasa.gov/sbdb.cgi?sstr=2434154",
      "absolute_magnitude_h" : 19.8,
      "estimated_diameter" : {
        "kilometers" : {
          "estimated_diameter_min" : 0.2914439045,
          "estimated_diameter_max" : 0.6516883822
        },
        "meters" : {
          "estimated_diameter_min" : 291.4439045349,
          "estimated_diameter_max" : 651.6883821679
        },
        "miles" : {
          "estimated_diameter_min" : 0.1810947904,
          "estimated_diameter_max" : 0.4049402617
        },
        "feet" : {
          "estimated_diameter_min" : 956.1808197541,
          "estimated_diameter_max" : 2138.0853117517
        }
      },
      "is_potentially_hazardous_asteroid" : false,
      "close_approach_data" : [ {
        "close_approach_date" : "2015-08-08",
        "epoch_date_close_approach" : 1439017200000,
        "relative_velocity" : {
          "kilometers_per_second" : "9.8566488151",
          "kilometers_per_hour" : "35483.9357341939",
          "miles_per_hour" : "22048.337734394"
        },
        "miss_distance" : {
          "astronomical" : "0.180620534",
          "lunar" : "70.261390686",
          "kilometers" : "27020448",
          "miles" : "16789728"
        },
        "orbiting_body" : "Earth"
      } ],
      "orbital_data" : {
        "orbit_id" : "42",
        "orbit_determination_date" : "2017-04-06 09:20:50",
        "orbit_uncertainty" : "0",
        "minimum_orbit_intersection" : ".0956515",
        "jupiter_tisserand_invariant" : "3.482",
        "epoch_osculation" : "2458000.5",
        "eccentricity" : ".5007766100646422",
        "semi_major_axis" : "2.201562664886171",
        "inclination" : "6.540864290686545",
        "ascending_node_longitude" : "139.0210304256619",
        "orbital_period" : "1193.149886724064",
        "perihelion_distance" : "1.099071576719594",
        "perihelion_argument" : "152.5213262617747",
        "aphelion_distance" : "3.304053753052747",
        "perihelion_time" : "2458420.937186970905",
        "mean_anomaly" : "233.1446995942014",
        "mean_motion" : ".3017223602882141",
        "equinox" : "J2000"
      }
    }, {
      "links" : {
        "self" : "https://api.nasa.gov/neo/rest/v1/neo/3574821?api_key=t0TVs3DtDT2H8Oy2Zy8m2eVrNsAVKAexjcZXUckd"
      },
      "neo_reference_id" : "3574821",
      "name" : "(2011 PO1)",
      "nasa_jpl_url" : "http://ssd.jpl.nasa.gov/sbdb.cgi?sstr=3574821",
      "absolute_magnitude_h" : 20.9,
      "estimated_diameter" : {
        "kilometers" : {
          "estimated_diameter_min" : 0.1756123185,
          "estimated_diameter_max" : 0.3926810818
        },
        "meters" : {
          "estimated_diameter_min" : 175.6123184804,
          "estimated_diameter_max" : 392.6810818086
        },
        "miles" : {
          "estimated_diameter_min" : 0.1091204019,
          "estimated_diameter_max" : 0.2440006365
        },
        "feet" : {
          "estimated_diameter_min" : 576.1559189633,
          "estimated_diameter_max" : 1288.3238004408
        }
      },
      "is_potentially_hazardous_asteroid" : true,
      "close_approach_data" : [ {
        "close_approach_date" : "2015-08-08",
        "epoch_date_close_approach" : 1439017200000,
        "relative_velocity" : {
          "kilometers_per_second" : "18.7007880922",
          "kilometers_per_hour" : "67322.8371318977",
          "miles_per_hour" : "41831.7928834283"
        },
        "miss_distance" : {
          "astronomical" : "0.2357632677",
          "lunar" : "91.7119140625",
          "kilometers" : "35269684",
          "miles" : "21915564"
        },
        "orbiting_body" : "Earth"
      } ],
      "orbital_data" : {
        "orbit_id" : "26",
        "orbit_determination_date" : "2017-04-06 08:53:02",
        "orbit_uncertainty" : "0",
        "minimum_orbit_intersection" : ".0364407",
        "jupiter_tisserand_invariant" : "3.134",
        "epoch_osculation" : "2458000.5",
        "eccentricity" : ".6375857964661167",
        "semi_major_axis" : "2.516989364675436",
        "inclination" : "5.740118012050327",
        "ascending_node_longitude" : "210.7219410201267",
        "orbital_period" : "1458.547232615172",
        "perihelion_distance" : ".9121926959021032",
        "perihelion_argument" : "166.6179423230757",
        "aphelion_distance" : "4.121786033448769",
        "perihelion_time" : "2457280.640121151418",
        "mean_anomaly" : "177.6764924649269",
        "mean_motion" : ".2468209406935151",
        "equinox" : "J2000"
      }
    } ]
  }
}